ONEWEB-0116             
1 48046U 21025E   26162.94653512 -.00000031  00000+0 -11968-3 0  9997
2 48046  87.8956 321.2607 0001735  92.2534 267.8794 13.13468986252965
ONEWEB-0150             
1 48047U 21025F   26163.15137921 -.00000284  00000+0 -81189-3 0  9995
2 48047  87.8957 321.2170 0002011  93.9700 266.1659 13.13469320252889
ONEWEB-0107             
1 48048U 21025G   26163.15307234 -.00000356  00000+0 -10092-2 0  9996
2 48048  87.8960 321.2127 0001947 102.5758 257.5589 13.13469130252866
ONEWEB-0101             
1 48049U 21025H   26163.19200986  .00000310  00000+0  81420-3 0  9999
2 48049  87.8947 321.2212 0001732 100.2302 259.9022 13.13470351252842
ONEWEB-0113             
1 48050U 21025J   26162.98950990 -.00000111  00000+0 -33787-3 0  9998
2 48050  87.8952 321.1721 0001833  92.7246 267.4093 13.13894036252929
ONEWEB-0112             
1 48051U 21025K   26163.15815000 -.00000348  00000+0 -98662-3 0  9996
2 48051  87.8958 321.2098 0001723 103.2606 256.8716 13.13469851252938
ONEWEB-0156             
1 48052U 21025L   26163.16661191 -.00000316  00000+0 -89916-3 0  9995
2 48052  87.8957 321.2182 0001934  98.2394 261.8954 13.13469884252917
ONEWEB-0161             
1 48053U 21025M   26162.98886621 -.00000095  00000+0 -29413-3 0  9992
2 48053  87.8957 321.2547 0001928  99.5203 260.6144 13.13469921252829
ONEWEB-0158             
1 48054U 21025N   26162.94824806 -.00000028  00000+0 -11116-3 0  9993
2 48054  87.8956 321.2602 0001593  92.6030 267.5281 13.13471495252941
ONEWEB-0157             
1 48055U 21025P   26163.12599641  .00000292  00000+0  76384-3 0  9990
2 48055  87.8955 321.2305 0001967 106.4425 253.6920 13.13469379252908
ONEWEB-0162             
1 48056U 21025Q   26163.17832868  .00000036  00000+0  64124-4 0  9993
2 48056  87.8952 321.2211 0001983  94.5307 265.6049 13.13470438252886
ONEWEB-0155             
1 48057U 21025R   26163.18523546  .00000223  00000+0  57585-3 0  9995
2 48057  87.8950 321.2155 0001796 102.2852 257.8479 13.13470285253023
ONEWEB-0149             
1 48058U 21025S   26163.13107157  .00000222  00000+0  57339-3 0  9993
2 48058  87.8956 321.2299 0002019  93.6154 266.5206 13.13469566252828
ONEWEB-0148             
1 48059U 21025T   26163.16999934 -.00000228  00000+0 -66045-3 0  9991
2 48059  87.8950 321.2295 0002416  95.3659 264.7746 13.13469895252957
ONEWEB-0160             
1 48060U 21025U   26163.18692823  .00000223  00000+0  57544-3 0  9999
2 48060  87.8949 321.2222 0001540  71.8925 288.2372 13.13471434252902
ONEWEB-0163             
1 48061U 21025V   26163.17168679 -.00000241  00000+0 -69489-3 0  9999
2 48061  87.8956 321.2193 0001921 104.7153 255.4189 13.13470622253024
